{"type": "FeatureCollection", "features": [ {"type": "Feature", "properties": {"norad_id": 30630, "name": "FENGYUN 1C DEB", "group": "fengyun-1c-debris", "lat": -13.171365590074718, "lon": -11.212999552650093, "alt_km": 837.5107150845961, "timestamp": "2025-12-23T11:34:48.441109+00:00", "meta": {"OBJECT_NAME": "FENGYUN 1C DEB", "OBJECT_ID": "1999-025ANM", "EPOCH": "2025-12-21T06:56:18.177792", "MEAN_MOTION": 14.2240713, "ECCENTRICITY": 0.00257811, "INCLINATION": 99.1734, "RA_OF_ASC_NODE": 168.6728, "ARG_OF_PERICENTER": 50.6463, "MEAN_ANOMALY": 76.9567, "EPHEMERIS_TYPE": 0, "CLASSIFICATION_TYPE": "U", "NORAD_CAT_ID": 30630, "ELEMENT_SET_NO": 999, "REV_AT_EPOCH": 97334, "BSTAR": 0.00074076355, "MEAN_MOTION_DOT": 1.608e-05, "MEAN_MOTION_DDOT": 0}, "tle": {"line1": "1 30630U 99025ANM 25355.28909928  .00001608  00000+0  74076-3 0  9995", "line2": "2 30630  99.1734 168.6728 0025781  50.6463  76.9567 14.22407130973342"}}, "geometry": {"type": "Point", "coordinates": [-11.212999552650093, -13.171365590074718]}}, {"type": "Feature", "properties": {"norad_id": 30632, "name": "FENGYUN 1C DEB", "group": "fengyun-1c-debris", "lat": 30.477279160783635, "lon": -45.18141404772845, "alt_km": 671.7286015700793, "timestamp": "2025-12-23T11:34:48.441118+00:00", "meta": {"OBJECT_NAME": "FENGYUN 1C DEB", "OBJECT_ID": "1999-025ANP", "EPOCH": "2025-12-21T20:12:23.380992", "MEAN_MOTION": 14.63030103, "ECCENTRICITY": 0.00142851, "INCLINATION": 98.8251, "RA_OF_ASC_NODE": 127.8191, "ARG_OF_PERICENTER": 143.0265, "MEAN_ANOMALY": 10.1532, "EPHEMERIS_TYPE": 0, "CLASSIFICATION_TYPE": "U", "NORAD_CAT_ID": 30632, "ELEMENT_SET_NO": 999, "REV_AT_EPOCH": 97824, "BSTAR": 0.0027648285, "MEAN_MOTION_DOT": 0.00014175, "MEAN_MOTION_DDOT": 0}, "tle": {"line1": "1 30632U 99025ANP 25355.84193728  .00014175  00000+0  27648-2 0  9997", "line2": "2 30632  98.8251 127.8191 0014285 143.0265  10.1532 14.63030103978242"}}, "geometry": {"type": "Point", "coordinates": [-45.18141404772845, 30.477279160783635]}}, {"type": "Feature", "properties": {"norad_id": 30633, "name": "FENGYUN 1C DEB", "group": "fengyun-1c-debris", "lat": -60.894236708955674, "lon": -122.85622419681548, "alt_km": 849.8842094541797, "timestamp": "2025-12-23T11:34:48.441126+00:00", "meta": {"OBJECT_NAME": "FENGYUN 1C DEB", "OBJECT_ID": "1999-025ANQ", "EPOCH": "2025-12-22T20:47:12.254784", "MEAN_MOTION": 14.04412123, "ECCENTRICITY": 0.01300738, "INCLINATION": 98.4204, "RA_OF_ASC_NODE": 221.1418, "ARG_OF_PERICENTER": 231.3571, "MEAN_ANOMALY": 190.6262, "EPHEMERIS_TYPE": 0, "CLASSIFICATION_TYPE": "U", "NORAD_CAT_ID": 30633, "ELEMENT_SET_NO": 999, "REV_AT_EPOCH": 96034, "BSTAR": 0.0007887414, "MEAN_MOTION_DOT": 1.314e-05, "MEAN_MOTION_DDOT": 0}, "tle": {"line1": "1 30633U 99025ANQ 25356.86611406  .00001314  00000+0  78874-3 0  9998", "line2": "2 30633  98.4204 221.1418 0130073 231.3571 190.6262 14.04412123960349"}}, "geometry": {"type": "Point", "coordinates": [-122.85622419681548, -60.894236708955674]}}, {"type": "Feature", "properties": {"norad_id": 30634, "name": "FENGYUN 1C DEB", "group": "fengyun-1c-debris", "lat": 28.5869073023638, "lon": 165.76558443526594, "alt_km": 848.7135148448951, "timestamp": "2025-12-23T11:34:48.441135+00:00", "meta": {"OBJECT_NAME": "FENGYUN 1C DEB", "OBJECT_ID": "1999-025ANR", "EPOCH": "2025-12-20T21:54:31.497120", "MEAN_MOTION": 14.09764413, "ECCENTRICITY": 0.0121094, "INCLINATION": 99.2933, "RA_OF_ASC_NODE": 337.9942, "ARG_OF_PERICENTER": 73.9192, "MEAN_ANOMALY": 1.3638, "EPHEMERIS_TYPE": 0, "CLASSIFICATION_TYPE": "U", "NORAD_CAT_ID": 30634, "ELEMENT_SET_NO": 999, "REV_AT_EPOCH": 95732, "BSTAR": 0.0016161, "MEAN_MOTION_DOT": 2.993e-05, "MEAN_MOTION_DDOT": 0}, "tle": {"line1": "1 30634U 99025ANR 25354.91286455  .00002993  00000+0  16161-2 0  9999", "line2": "2 30634  99.2933 337.9942 0121094  73.9192   1.3638 14.09764413957324"}}, "geometry": {"type": "Point", "coordinates": [165.76558443526594, 28.5869073023638]}}, {"type": "Feature", "properties": {"norad_id": 30639, "name": "FENGYUN 1C DEB", "group": "fengyun-1c-debris", "lat": -27.545568474875434, "lon": 114.64895533789431, "alt_km": 782.1057103302774, "timestamp": "2025-12-23T11:34:48.441144+00:00", "meta": {"OBJECT_NAME": "FENGYUN 1C DEB", "OBJECT_ID": "1999-025ANW", "EPOCH": "2025-12-21T12:46:18.369984", "MEAN_MOTION": 14.32457299, "ECCENTRICITY": 0.0068393, "INCLINATION": 99.0183, "RA_OF_ASC_NODE": 107.8697, "ARG_OF_PERICENTER": 255.7681, "MEAN_ANOMALY": 103.5898, "EPHEMERIS_TYPE": 0, "CLASSIFICATION_TYPE": "U", "NORAD_CAT_ID": 30639, "ELEMENT_SET_NO": 999, "REV_AT_EPOCH": 96845, "BSTAR": 0.0024021, "MEAN_MOTION_DOT": 6.633e-05, "MEAN_MOTION_DDOT": 0}, "tle": {"line1": "1 30639U 99025ANW 25355.53215706  .00006633  00000+0  24021-2 0  9993", "line2": "2 30639  99.0183 107.8697 0068393 255.7681 103.5898 14.32457299968456"}}, "geometry": {"type": "Point", "coordinates": [114.64895533789431, -27.545568474875434]}}, {"type": "Feature", "properties": {"norad_id": 30640, "name": "FENGYUN 1C DEB", "group": "fengyun-1c-debris", "lat": 36.992139729983585, "lon": -104.25544172405439, "alt_km": 822.3958127634232, "timestamp": "2025-12-23T11:34:48.441153+00:00", "meta": {"OBJECT_NAME": "FENGYUN 1C DEB", "OBJECT_ID": "1999-025ANX", "EPOCH": "2025-12-22T21:37:18.350112", "MEAN_MOTION": 14.1468243, "ECCENTRICITY": 0.00801557, "INCLINATION": 99.0565, "RA_OF_ASC_NODE": 68.2537, "ARG_OF_PERICENTER": 71.9849, "MEAN_ANOMALY": 349.1598, "EPHEMERIS_TYPE": 0, "CLASSIFICATION_TYPE": "U", "NORAD_CAT_ID": 30640, "ELEMENT_SET_NO": 999, "REV_AT_EPOCH": 96589, "BSTAR": 0.0012991491, "MEAN_MOTION_DOT": 2.534e-05, "MEAN_MOTION_DDOT": 0}, "tle": {"line1": "1 30640U 99025ANX 25356.90090683  .00002534  00000+0  12991-2 0  9991", "line2": "2 30640  99.0565  68.2537 0080155  71.9849 349.1598 14.14682430965896"}}, "geometry": {"type": "Point", "coordinates": [-104.25544172405439, 36.992139729983585]}}, {"type": "Feature", "properties": {"norad_id": 30641, "name": "FENGYUN 1C DEB", "group": "fengyun-1c-debris", "lat": 52.66100083451243, "lon": -78.86107219876789, "alt_km": 552.960582838803, "timestamp": "2025-12-23T11:34:48.441162+00:00", "meta": {"OBJECT_NAME": "FENGYUN 1C DEB", "OBJECT_ID": "1999-025ANY", "EPOCH": "2025-12-21T18:53:49.850592", "MEAN_MOTION": 14.7902674, "ECCENTRICITY": 0.01363689, "INCLINATION": 98.9436, "RA_OF_ASC_NODE": 291.1685, "ARG_OF_PERICENTER": 98.3384, "MEAN_ANOMALY": 295.9323, "EPHEMERIS_TYPE": 0, "CLASSIFICATION_TYPE": "U", "NORAD_CAT_ID": 30641, "ELEMENT_SET_NO": 999, "REV_AT_EPOCH": 666, "BSTAR": 0.00039110837, "MEAN_MOTION_DOT": 3.311e-05, "MEAN_MOTION_DDOT": 0}, "tle": {"line1": "1 30641U 99025ANY 25355.78738253  .00003311  00000+0  39111-3 0  9997", "line2": "2 30641  98.9436 291.1685 0136368  98.3384 295.9323 14.79026740  6660"}}, "geometry": {"type": "Point", "coordinates": [-78.86107219876789, 52.66100083451243]}}, {"type": "Feature", "properties": {"norad_id": 30646, "name": "FENGYUN 1C DEB", "group": "fengyun-1c-debris", "lat": -5.525048091429315, "lon": 18.448785707359903, "alt_km": 829.6773016761899, "timestamp": "2025-12-23T11:34:48.441171+00:00", "meta": {"OBJECT_NAME": "FENGYUN 1C DEB", "OBJECT_ID": "1999-025APD", "EPOCH": "2025-12-20T22:16:53.562144", "MEAN_MOTION": 14.09670373, "ECCENTRICITY": 0.0047883, "INCLINATION": 98.6515, "RA_OF_ASC_NODE": 15.1503, "ARG_OF_PERICENTER": 8.9139, "MEAN_ANOMALY": 351.2871, "EPHEMERIS_TYPE": 0, "CLASSIFICATION_TYPE": "U", "NORAD_CAT_ID": 30646, "ELEMENT_SET_NO": 999, "REV_AT_EPOCH": 96720, "BSTAR": 0.00055707, "MEAN_MOTION_DOT": 9.45e-06, "MEAN_MOTION_DDOT": 0}, "tle": {"line1": "1 30646U 99025APD 25354.92839771  .00000945  00000+0  55707-3 0  9993", "line2": "2 30646  98.6515  15.1503 0047883   8.9139 351.2871 14.09670373967201"}}, "geometry": {"type": "Point", "coordinates": [18.448785707359903, -5.525048091429315]}}, {"type": "Feature", "properties": {"norad_id": 30647, "name": "FENGYUN 1C DEB", "group": "fengyun-1c-debris", "lat": 72.00252864001274, "lon": 139.52481790777364, "alt_km": 679.5421784438067, "timestamp": "2025-12-23T11:34:48.441180+00:00", "meta": {"OBJECT_NAME": "FENGYUN 1C DEB", "OBJECT_ID": "1999-025APE", "EPOCH": "2025-12-22T07:45:37.895328", "MEAN_MOTION": 14.56636582, "ECCENTRICITY": 0.00299075, "INCLINATION": 98.9905, "RA_OF_ASC_NODE": 289.1105, "ARG_OF_PERICENTER": 143.6717, "MEAN_ANOMALY": 7.1542, "EPHEMERIS_TYPE": 0, "CLASSIFICATION_TYPE": "U", "NORAD_CAT_ID": 30647, "ELEMENT_SET_NO": 999, "REV_AT_EPOCH": 98128, "BSTAR": 0.0022535273, "MEAN_MOTION_DOT": 0.00010073, "MEAN_MOTION_DDOT": 0}, "tle": {"line1": "1 30647U 99025APE 25356.32335527  .00010073  00000+0  22535-2 0  9995", "line2": "2 30647  98.9905 289.1105 0029907 143.6717   7.1542 14.56636582981287"}}, "geometry": {"type": "Point", "coordinates": [139.52481790777364, 72.00252864001274]}}, {"type": "Feature", "properties": {"norad_id": 30648, "name": "FENGYUN 1C DEB", "group": "fengyun-1c-debris", "lat": -68.65449220101131, "lon": 115.27854738013262, "alt_km": 761.8662792386185, "timestamp": "2025-12-23T11:34:48.441188+00:00", "meta": {"OBJECT_NAME": "FENGYUN 1C DEB", "OBJECT_ID": "1999-025APF", "EPOCH": "2025-12-22T06:19:48.081216", "MEAN_MOTION": 14.4825088, "ECCENTRICITY": 0.00337664, "INCLINATION": 98.6411, "RA_OF_ASC_NODE": 91.1327, "ARG_OF_PERICENTER": 99.5986, "MEAN_ANOMALY": 319.5469, "EPHEMERIS_TYPE": 0, "CLASSIFICATION_TYPE": "U", "NORAD_CAT_ID": 30648, "ELEMENT_SET_NO": 999, "REV_AT_EPOCH": 98004, "BSTAR": 0.0020874209, "MEAN_MOTION_DOT": 7.809e-05, "MEAN_MOTION_DDOT": 0}, "tle": {"line1": "1 30648U 99025APF 25356.26375094  .00007809  00000+0  20874-2 0  9999", "line2": "2 30648  98.6411  91.1327 0033766  99.5986 319.5469 14.48250880980044"}}, "geometry": {"type": "Point", "coordinates": [115.27854738013262, -68.65449220101131]}}]}